NORAD_CAT_ID,OBJECT_NAME,OBJECT_TYPE,EPOCH,MEAN_MOTION,ECCENTRICITY,INCLINATION,RA_OF_ASC_NODE,ARG_OF_PERICENTER,MEAN_ANOMALY,BSTAR,MEAN_MOTION_DOT,MEAN_MOTION_DDOT,TLE_LINE0,TLE_LINE1,TLE_LINE2,SEMIMAJOR_AXIS,PERIOD,APOGEE,PERIGEE,DECAYED
51982.0,STARLINK-3650,PAYLOAD,2024-06-04 09:44:23,15.08844021,0.0001763,53.2195,46.9338,85.5347,274.5846,8.5488e-05,1.073e-05,0.0,0 STARLINK-3650,1 51982U 22025AC  24156.40583081  .00001073  00000-0  85488-4 0  9991,2 51982  53.2195  46.9338 0001763  85.5347 274.5846 15.08844021125045,6917.868,95.437,540.953,538.513,0.0
51982.0,STARLINK-3650,PAYLOAD,2024-06-05 01:38:15,15.08839698,0.000124,53.2179,43.958,80.942,279.1712,2.1436e-05,5.3e-07,0.0,0 STARLINK-3650,1 51982U 22025AC  24157.06823374  .00000053  00000-0  21436-4 0  9996,2 51982  53.2179  43.9580 0001240  80.9420 279.1712 15.08839698125142,6917.881,95.438,540.604,538.888,0.0
51982.0,STARLINK-3650,PAYLOAD,2024-06-05 09:35:10,15.08846116,0.0001225,53.2193,42.4722,87.1289,272.9843,9.502e-05,1.225e-05,0.0,0 STARLINK-3650,1 51982U 22025AC  24157.39942722  .00001225  00000-0  95020-4 0  9993,2 51982  53.2193  42.4722 0001225  87.1289 272.9843 15.08846116125199,6917.862,95.437,540.574,538.879,0.0
51982.0,STARLINK-3650,PAYLOAD,2024-06-05 15:56:43,15.08843134,0.0002517,53.2158,41.2859,82.4775,277.6503,0.00012008,1.623e-05,0.0,0 STARLINK-3650,1 51982U 22025AC  24157.66439346  .00001623  00000-0  12008-3 0  9992,2 51982  53.2158  41.2859 0002517  82.4775 277.6503 15.08843134125238,6917.871,95.437,541.477,537.995,0.0
51982.0,STARLINK-3650,PAYLOAD,2024-06-06 09:25:58,15.08838698,0.0002143,53.2164,38.012,83.747,276.3766,-4.5834e-05,-1.018e-05,0.0,0 STARLINK-3650,1 51982U 22025AC  24158.39304123 -.00001018  00000-0 -45834-4 0  9991,2 51982  53.2164  38.0120 0002143  83.7470 276.3766 15.08838698125349,6917.884,95.438,541.232,538.267,0.0
51982.0,STARLINK-3650,PAYLOAD,2024-06-07 01:19:50,15.0880912,0.000194,53.2156,35.0379,87.8978,272.2236,0.00044756,6.836e-05,0.0,0 STARLINK-3650,1 51982U 22025AC  24159.05544157  .00006836  00000-0  44756-3 0  9990,2 51982  53.2156  35.0379 0001940  87.8978 272.2236 15.08809120125441,6917.975,95.44,541.182,538.498,0.0
51982.0,STARLINK-3650,PAYLOAD,2024-06-07 09:16:44,15.08851477,0.0001929,53.2188,33.5504,87.2162,272.905,4.6348e-05,4.5e-06,0.0,0 STARLINK-3650,1 51982U 22025AC  24159.38662960  .00000450  00000-0  46348-4 0  9995,2 51982  53.2188  33.5504 0001929  87.2162 272.9050 15.08851477125493,6917.845,95.437,541.045,538.376,0.0
51982.0,STARLINK-3650,PAYLOAD,2024-06-07 21:59:49,15.08845798,0.0002294,53.2144,31.1707,93.7191,266.4064,0.000127,1.734e-05,0.0,0 STARLINK-3650,1 51982U 22025AC  24159.91654999  .00001734  00000-0  12700-3 0  9997,2 51982  53.2144  31.1707 0002294  93.7191 266.4064 15.08845798124473,6917.863,95.437,541.315,538.141,0.0
51982.0,STARLINK-3650,PAYLOAD,2024-06-08 01:10:36,15.08839928,0.0001323,53.2194,30.5752,97.297,262.8172,2.6681e-05,1.37e-06,0.0,0 STARLINK-3650,1 51982U 22025AC  24160.04903520  .00000137  00000-0  26681-4 0  9990,2 51982  53.2194  30.5752 0001323  97.2970 262.8172 15.08839928125599,6917.881,95.438,540.661,538.83,0.0
51982.0,STARLINK-3650,PAYLOAD,2024-06-08 21:50:37,15.08836488,0.000121,53.2207,26.7088,101.6328,258.48,1.9936e-05,2.9e-07,0.0,0 STARLINK-3650,1 51982U 22025AC  24160.91015784  .00000029  00000-0  19936-4 0  9997,2 51982  53.2207  26.7088 0001210 101.6328 258.4800 15.08836488124625,6917.891,95.438,540.593,538.919,0.0
51982.0,STARLINK-3650,PAYLOAD,2024-06-09 15:19:52,15.088524,0.0001233,53.2178,23.4356,96.3052,263.8081,-0.00023324,-3.999e-05,0.0,0 STARLINK-3650,1 51982U 22025AC  24161.63879767 -.00003999  00000-0 -23324-3 0  9992,2 51982  53.2178  23.4356 0001233  96.3052 263.8081 15.08852400124738,6917.842,95.437,540.56,538.855,0.0
51982.0,STARLINK-3650,PAYLOAD,2024-06-09 21:41:25,15.08832039,9.14e-05,53.2177,22.252,87.1496,272.96,6.4858e-05,7.44e-06,0.0,0 STARLINK-3650,1 51982U 22025AC  24161.90376251  .00000744  00000-0  64858-4 0  9993,2 51982  53.2177  22.2520 0000914  87.1496 272.9600 15.08832039125872,6917.905,95.438,540.402,539.137,0.0
51982.0,STARLINK-3650,PAYLOAD,2024-06-10 07:13:43,15.08854495,9.88e-05,53.2187,20.4673,94.4717,265.6388,-9.1646e-05,-1.747e-05,0.0,0 STARLINK-3650,1 51982U 22025AC  24162.30119269 -.00001747  00000-0 -91646-4 0  9993,2 51982  53.2187  20.4673 0000988  94.4717 265.6388 15.08854495125939,6917.836,95.437,540.385,539.018,0.0
51982.0,STARLINK-3650,PAYLOAD,2024-06-10 21:32:12,15.08833816,0.0001008,53.2183,17.7917,90.1995,269.9113,6.8578e-05,8.04e-06,0.0,0 STARLINK-3650,1 51982U 22025AC  24162.89736446  .00000804  00000-0  68578-4 0  9998,2 51982  53.2183  17.7917 0001008  90.1995 269.9113 15.08833816126028,6917.899,95.438,540.462,539.067,0.0
51982.0,STARLINK-3650,PAYLOAD,2024-06-11 07:04:30,15.08838963,0.0001092,53.219,16.0078,93.4283,266.6834,0.00010148,1.328e-05,0.0,0 STARLINK-3650,1 51982U 22025AC  24163.29480125  .00001328  00000-0  10148-3 0  9994,2 51982  53.2190  16.0078 0001092  93.4283 266.6834 15.08838963124980,6917.884,95.438,540.504,538.993,0.0
51982.0,STARLINK-3650,PAYLOAD,2024-06-11 22:58:22,15.08834638,0.0001363,53.2208,13.0355,96.1383,263.9765,3.8181e-05,3.2e-06,0.0,0 STARLINK-3650,1 51982U 22025AC  24163.95720897  .00000320  00000-0  38181-4 0  9999,2 51982  53.2208  13.0355 0001363  96.1383 263.9765 15.08834638126189,6917.897,95.438,540.705,538.819,0.0
51982.0,STARLINK-3650,PAYLOAD,2024-06-12 06:55:17,15.08843906,0.0001236,53.2207,11.5475,88.2955,271.8179,5.2671e-05,5.51e-06,0.0,0 STARLINK-3650,1 51982U 22025AC  24164.28840228  .00000551  00000-0  52671-4 0  9993,2 51982  53.2207  11.5475 0001236  88.2955 271.8179 15.08843906126231,6917.868,95.437,540.588,538.878,0.0
51982.0,STARLINK-3650,PAYLOAD,2024-06-12 19:38:23,15.08837707,0.0001249,53.2198,9.1679,84.6385,275.475,5.7044e-06,-1.97e-06,0.0,0 STARLINK-3650,1 51982U 22025AC  24164.81832852 -.00000197  00000-0  57044-5 0  9993,2 51982  53.2198   9.1679 0001249  84.6385 275.4750 15.08837707126316,6917.887,95.438,540.616,538.888,0.0
51982.0,STARLINK-3650,PAYLOAD,2024-06-12 21:13:46,15.08838572,0.0001214,53.2195,8.8703,83.5851,276.528,1.2451e-05,-9e-07,0.0,0 STARLINK-3650,1 51982U 22025AC  24164.88456778 -.00000090  00000-0  12451-4 0  9993,2 51982  53.2195   8.8703 0001214  83.5851 276.5280 15.08838572125225,6917.885,95.438,540.59,538.91,0.0
51982.0,STARLINK-3650,PAYLOAD,2024-06-13 06:46:04,15.08846323,0.0001265,53.2199,7.0856,81.2089,278.9047,5.6986e-05,6.19e-06,0.0,0 STARLINK-3650,1 51982U 22025AC  24165.28200112  .00000619  00000-0  56986-4 0  9994,2 51982  53.2199   7.0856 0001265  81.2089 278.9047 15.08846323126381,6917.861,95.437,540.601,538.851,0.0
51982.0,STARLINK-3650,PAYLOAD,2024-06-13 19:29:10,15.08838555,0.0001113,53.2186,4.7076,85.9204,274.1916,8.964e-05,1.139e-05,0.0,0 STARLINK-3650,1 51982U 22025AC  24165.81192423  .00001139  00000-0  89640-4 0  9999,2 51982  53.2186   4.7076 0001113  85.9204 274.1916 15.08838555125365,6917.885,95.438,540.52,538.98,0.0
51982.0,STARLINK-3650,PAYLOAD,2024-06-14 12:58:24,15.08840108,0.0001147,53.2181,1.4383,85.2577,274.8546,6.1726e-05,6.95e-06,0.0,0 STARLINK-3650,1 51982U 22025AC  24166.54056283  .00000695  00000-0  61726-4 0  9994,2 51982  53.2181   1.4383 0001147  85.2577 274.8546 15.08840108125473,6917.88,95.438,540.539,538.952,0.0
51982.0,STARLINK-3650,PAYLOAD,2024-06-14 22:30:43,15.08841718,0.0001212,53.2199,359.6508,96.4483,263.6647,1.03e-05,-1.24e-06,0.0,0 STARLINK-3650,1 51982U 22025AC  24166.93800346 -.00000124  00000-0  10300-4 0  9994,2 51982  53.2199 359.6508 0001212  96.4483 263.6647 15.08841718125535,6917.875,95.437,540.579,538.902,0.0
51982.0,STARLINK-3650,PAYLOAD,2024-06-15 12:49:12,15.0882584,0.0001196,53.2205,356.9745,103.4557,256.6568,0.0001972,2.851e-05,0.0,0 STARLINK-3650,1 51982U 22025AC  24167.53416669  .00002851  00000-0  19720-3 0  9994,2 51982  53.2205 356.9745 0001196 103.4557 256.6568 15.08825840125620,6917.924,95.438,540.616,538.961,0.0
51982.0,STARLINK-3650,PAYLOAD,2024-06-15 22:21:30,15.08841441,0.0001247,53.2196,355.1918,95.2798,264.8336,1.275e-05,-8.5e-07,0.0,0 STARLINK-3650,1 51982U 22025AC  24167.93160274 -.00000085  00000-0  12750-4 0  9991,2 51982  53.2196 355.1918 0001247  95.2798 264.8336 15.08841441125689,6917.876,95.437,540.604,538.878,0.0
51982.0,STARLINK-3650,PAYLOAD,2024-06-16 19:01:31,15.08833822,0.0001181,53.2195,351.3265,92.7674,267.3454,-1.6201e-05,-5.46e-06,0.0,0 STARLINK-3650,1 51982U 22025AC  24168.79272947 -.00000546  00000-0 -16201-4 0  9995,2 51982  53.2195 351.3265 0001181  92.7674 267.3454 15.08833822125811,6917.899,95.438,540.581,538.947,0.0
51982.0,STARLINK-3650,PAYLOAD,2024-06-17 18:52:18,15.0883766,0.0001032,53.2186,346.8652,84.1858,275.9252,3.0105e-05,1.91e-06,0.0,0 STARLINK-3650,1 51982U 22025AC  24169.78632792  .00000191  00000-0  30105-4 0  9996,2 51982  53.2186 346.8652 0001032  84.1858 275.9252 15.08837660125965,6917.888,95.438,540.466,539.039,0.0
51982.0,STARLINK-3650,PAYLOAD,2024-06-18 10:46:10,15.08836698,0.0001241,53.2205,343.8959,107.8775,252.2353,6.9871e-05,8.24e-06,0.0,0 STARLINK-3650,1 51982U 22025AC  24170.44872771  .00000824  00000-0  69871-4 0  9999,2 51982  53.2205 343.8959 0001241 107.8775 252.2353 15.08836698126069,6917.89,95.438,540.614,538.897,0.0
51982.0,STARLINK-3650,PAYLOAD,2024-06-18 18:43:06,15.0882951,0.0001341,53.221,342.4079,111.1895,248.9241,9.2593e-06,-1.41e-06,0.0,0 STARLINK-3650,1 51982U 22025AC  24170.77993586 -.00000141  00000-0  92593-5 0  9994,2 51982  53.2210 342.4079 0001341 111.1895 248.9241 15.08829510127216,6917.912,95.438,540.705,538.85,0.0
51982.0,STARLINK-3650,PAYLOAD,2024-06-19 04:15:25,15.08835805,0.000128,53.2212,340.6234,90.1447,269.9691,3.0395e-05,1.96e-06,0.0,0 STARLINK-3650,1 51982U 22025AC  24171.17737343  .00000196  00000-0  30395-4 0  9996,2 51982  53.2212 340.6234 0001280  90.1447 269.9691 15.08835805127274,6917.893,95.438,540.644,538.873,0.0
